     2.100          NAVIGATION                              RINEX VERSION / TYPE
fic2rin                                 07/17/2016 00:06:20 PGM / RUN BY / DATE
                                                            END OF HEADER
19 16  7 16 12  0  0.0 -.524916220456D-03  .227373675443D-12  .000000000000D+00
     .790000000000D+02 -.123031250000D+03  .400266672714D-08  .273157405403D+01
    -.656023621559D-05  .107411374338D-01  .852905213833D-05  .515363131905D+04
     .561600000000D+06 -.167638063431D-07  .228590879149D+01 -.137835741043D-06
     .974071713105D+00  .218593750000D+03  .819158886513D+00 -.769496338325D-08
    -.291797868838D-09  .100000000000D+01  .190500000000D+04  .000000000000D+00
     .240000000000D+01  .000000000000D+00 -.149011611938D-07  .790000000000D+02
     .554406000000D+06  .400000000000D+01
20 16  7 16 12  0  0.0  .424561556429D-03  .216004991671D-11  .000000000000D+00
     .680000000000D+02  .671875000000D+01  .554380235019D-08 -.121386496747D+01
     .627711415291D-06  .458498497028D-02  .522099435329D-05  .515375803757D+04
     .561600000000D+06 -.372529029846D-08 -.208382090328D+01  .912696123123D-07
     .926110019948D+00  .259062500000D+03  .139778691976D+01 -.856928551657D-08
     .230723896291D-09  .100000000000D+01  .190500000000D+04  .000000000000D+00
     .240000000000D+01  .000000000000D+00 -.838190317154D-08  .680000000000D+02
     .554406000000D+06  .400000000000D+01
23 16  7 16 12  0  0.0 -.182371120900D-03 -.147792889038D-11  .000000000000D+00
     .820000000000D+02  .846875000000D+01  .482591530446D-08 -.169417003376D+01
     .128522515297D-06  .111145459814D-01  .875815749168D-05  .515364551544D+04
     .561600000000D+06  .154599547386D-06 -.953151468162D+00 -.800937414169D-07
     .945499947251D+00  .197375000000D+03 -.254911909990D+01 -.797033199632D-08
    -.177864551630D-09  .100000000000D+01  .190500000000D+04  .000000000000D+00
     .240000000000D+01  .000000000000D+00 -.200234353542D-07  .820000000000D+02
     .554406000000D+06  .400000000000D+01
24 16  7 16 12  0  0.0 -.202320516109D-04 -.568434188608D-12  .000000000000D+00
     .990000000000D+02  .114250000000D+03  .473341145130D-08 -.221890624523D+01
     .577419996262D-05  .446193595417D-02  .847503542900D-05  .515361410522D+04
     .561600000000D+06  .633299350739D-07  .719904444510D-01 -.141561031342D-06
     .949264973199D+00  .209781250000D+03  .405229852798D+00 -.813319592311D-08
     .208937274505D-09  .100000000000D+01  .190500000000D+04  .000000000000D+00
     .240000000000D+01  .000000000000D+00  .232830643654D-08  .990000000000D+02
     .554406000000D+06  .400000000000D+01
25 16  7 16 12  0  0.0 -.209421385080D-03 -.693489710102D-11  .000000000000D+00
     .570000000000D+02  .153125000000D+02  .446340020425D-08  .195305660147D+01
     .631436705589D-06  .561749108601D-02  .192224979401D-05  .515372437286D+04
     .561600000000D+06 -.126659870148D-06  .114551582706D+01 -.745058059692D-08
     .978308790534D+00  .352125000000D+03  .795984714907D+00 -.821391357104D-08
    -.382158775590D-10  .100000000000D+01  .190500000000D+04  .000000000000D+00
     .240000000000D+01  .000000000000D+00  .558793544769D-08  .570000000000D+02
     .554406000000D+06  .400000000000D+01
26 16  7 16 12  0  0.0 -.424617435783D-03 -.989075488178D-11  .000000000000D+00
     .180000000000D+02  .101562500000D+02  .488056043779D-08  .116798624144D+01
     .711530447006D-06  .993842608295D-03  .178441405296D-05  .515379089737D+04
     .561600000000D+06  .100582838058D-06  .113566702806D+01 -.633299350739D-07
     .960262932383D+00  .341375000000D+03  .174589020631D+00 -.850749722855D-08
    -.971469037013D-10  .100000000000D+01  .190500000000D+04  .000000000000D+00
     .240000000000D+01  .000000000000D+00  .698491930962D-08  .180000000000D+02
     .554406000000D+06  .400000000000D+01
27 16  7 16 12  0  0.0  .115334987640D-03  .443378667114D-11  .000000000000D+00
     .910000000000D+02 -.962812500000D+02  .415088718683D-08 -.400511517747D+00
    -.520236790180D-05  .376538757700D-02  .726431608200D-05  .515364916229D+04
     .561600000000D+06  .633299350739D-07  .218705165317D+01  .577419996262D-07
     .971825342415D+00  .245156250000D+03  .332590648067D+00 -.796783189218D-08
    -.326799326789D-09  .100000000000D+01  .190500000000D+04  .000000000000D+00
     .240000000000D+01  .000000000000D+00  .139698386192D-08  .910000000000D+02
     .554406000000D+06  .400000000000D+01
28 16  7 16 12  0  0.0  .537582673132D-03  .272848410532D-11  .000000000000D+00
     .610000000000D+02 -.734375000000D+01  .435018120251D-08  .435667621865D+00
    -.309199094772D-06  .197504411917D-01  .263191759586D-05  .515362751579D+04
     .561600000000D+06 -.238418579102D-06  .122073306503D+01 -.204890966415D-07
     .989307153483D+00  .349500000000D+03 -.161419829155D+01 -.858035740633D-08
    -.200365488884D-09  .100000000000D+01  .190500000000D+04  .000000000000D+00
     .240000000000D+01  .000000000000D+00 -.111758708954D-07  .610000000000D+02
     .554406000000D+06  .400000000000D+01
29 16  7 16 12  0  0.0  .655380077660D-03 -.568434188608D-12  .000000000000D+00
     .990000000000D+02 -.100937500000D+03  .395373611755D-08  .173787213810D+01
    -.522099435329D-05  .731733278371D-03  .773556530476D-05  .515378488922D+04
     .561600000000D+06 -.484287738800D-07  .224702422268D+01 -.186264514923D-08
     .977910622268D+00  .240250000000D+03  .599063197958D-02 -.775853745994D-08
    -.263582407837D-09  .100000000000D+01  .190500000000D+04  .000000000000D+00
     .240000000000D+01  .000000000000D+00 -.102445483208D-07  .990000000000D+02
     .554406000000D+06  .400000000000D+01
30 16  7 16 12  0  0.0  .139985699207D-03  .238742359215D-11  .000000000000D+00
     .111000000000D+03  .118343750000D+03  .474305471012D-08 -.310058363514D+01
     .625476241112D-05  .228443625383D-02  .727549195290D-05  .515359040070D+04
     .561600000000D+06 -.484287738800D-07  .163399375291D+00 -.353902578354D-07
     .951976023725D+00  .238218750000D+03  .308705943733D+01 -.816069706865D-08
     .233938315898D-09  .100000000000D+01  .190500000000D+04  .000000000000D+00
     .240000000000D+01  .000000000000D+00  .325962901115D-08  .111000000000D+03
     .554406000000D+06  .400000000000D+01
31 16  7 16 12  0  0.0  .258595682681D-03 -.193267624127D-11  .000000000000D+00
     .105000000000D+03  .102500000000D+03  .427696386700D-08  .293158833633D+01
     .543892383575D-05  .816836068407D-02  .785849988461D-05  .515378867531D+04
     .561600000000D+06 -.163912773132D-06  .129554456852D+00  .141561031342D-06
     .971010050855D+00  .233156250000D+03 -.393674662267D+00 -.779675333750D-08
     .187507810453D-09  .100000000000D+01  .190500000000D+04  .000000000000D+00
     .240000000000D+01  .000000000000D+00 -.135041773319D-07  .105000000000D+03
     .554406000000D+06  .400000000000D+01
32 16  7 16 12  0  0.0 -.500525347888D-04 -.106865627458D-10  .000000000000D+00
     .280000000000D+02 -.250000000000D+01  .456447584303D-08 -.668260568992D-01
    -.135973095894D-06  .589343369938D-03  .958889722824D-05  .515362641525D+04
     .561600000000D+06 -.167638063431D-07 -.956294326754D+00  .409781932831D-07
     .959154131180D+00  .196875000000D+03 -.227910677248D+01 -.789997192268D-08
    -.306084178206D-09  .100000000000D+01  .190500000000D+04  .000000000000D+00
     .240000000000D+01  .000000000000D+00  .465661287308D-09  .280000000000D+02
     .554406000000D+06  .400000000000D+01
19 16  7 16 11 59 44.0 -.524915754795D-03  .227373675443D-12  .000000000000D+00
     .300000000000D+01 -.123031250000D+03  .400266672714D-08  .272924107859D+01
    -.656023621559D-05  .107411388308D-01  .852905213833D-05  .515363133049D+04
     .561584000000D+06 -.167638063431D-07  .228590892462D+01 -.137835741043D-06
     .974071707254D+00  .218593750000D+03  .819157978041D+00 -.769496338325D-08
    -.291797868838D-09  .100000000000D+01  .190500000000D+04  .000000000000D+00
     .240000000000D+01  .000000000000D+00 -.149011611938D-07  .300000000000D+01
     .555036000000D+06  .400000000000D+01
27 16  7 16 11 59 44.0  .115334987640D-03  .443378667114D-11  .000000000000D+00
     .180000000000D+02 -.962812500000D+02  .415088718683D-08 -.402844282527D+00
    -.520236790180D-05  .376538466662D-02  .726431608200D-05  .515364916229D+04
     .561584000000D+06  .633299350739D-07  .218705179069D+01  .577419996262D-07
     .971825342415D+00  .245156250000D+03  .332589644505D+00 -.796783189218D-08
    -.326799326789D-09  .100000000000D+01  .190500000000D+04  .000000000000D+00
     .240000000000D+01  .000000000000D+00  .139698386192D-08  .180000000000D+02
     .555786000000D+06  .400000000000D+01
30 16  7 16 11 59 44.0  .139986164868D-03  .238742359215D-11  .000000000000D+00
     .170000000000D+02  .118343750000D+03  .474305471012D-08 -.310291864842D+01
     .625476241112D-05  .228443148080D-02  .727549195290D-05  .515359040642D+04
     .561584000000D+06 -.484287738800D-07  .163399492325D+00 -.353902578354D-07
     .951976004707D+00  .238218750000D+03  .308706057109D+01 -.816069706865D-08
     .233938315898D-09  .100000000000D+01  .190500000000D+04  .000000000000D+00
     .240000000000D+01  .000000000000D+00  .325962901115D-08  .170000000000D+02
     .555846000000D+06  .400000000000D+01
27 16  7 16 13 59 44.0  .115366652608D-03  .443378667114D-11  .000000000000D+00
     .190000000000D+02 -.100125000000D+03  .427160650099D-08  .647461352724D+00
    -.509247183800D-05  .376544345636D-02  .678934156895D-05  .515364917183D+04
     .568784000000D+06  .260770320892D-07  .218699408588D+01  .111758708954D-07
     .971822833510D+00  .250250000000D+03  .332477219251D+00 -.801783397497D-08
    -.313227332890D-09  .100000000000D+01  .190500000000D+04  .000000000000D+00
     .240000000000D+01  .000000000000D+00  .139698386192D-08  .190000000000D+02
     .561606000000D+06  .400000000000D+01
